[{"OBJECT_NAME":"ONEWEB-0035","OBJECT_ID":"2020-008N","EPOCH":"2026-01-14T12:41:12.977088","MEAN_MOTION":13.1037058,"ECCENTRICITY":0.00016653,"INCLINATION":87.8767,"RA_OF_ASC_NODE":66.9133,"ARG_OF_PERICENTER":101.7483,"MEAN_ANOMALY":258.3832,"EPHEMERIS_TYPE":0,"CLASSIFICATION_TYPE":"U","NORAD_CAT_ID":45143,"ELEMENT_SET_NO":999,"REV_AT_EPOCH":28781,"BSTAR":0.00049623923,"MEAN_MOTION_DOT":1.86e-6,"MEAN_MOTION_DDOT":0},{"OBJECT_NAME":"ONEWEB-0036","OBJECT_ID":"2020-008P","EPOCH":"2026-01-14T14:16:49.841184","MEAN_MOTION":13.10372792,"ECCENTRICITY":0.00020853,"INCLINATION":87.8779,"RA_OF_ASC_NODE":66.8613,"ARG_OF_PERICENTER":97.5374,"MEAN_ANOMALY":262.5991,"EPHEMERIS_TYPE":0,"CLASSIFICATION_TYPE":"U","NORAD_CAT_ID":45144,"ELEMENT_SET_NO":999,"REV_AT_EPOCH":28825,"BSTAR":0.0017163654,"MEAN_MOTION_DOT":6.12e-6,"MEAN_MOTION_DDOT":0},{"OBJECT_NAME":"ONEWEB-0038","OBJECT_ID":"2020-008Q","EPOCH":"2026-01-14T12:10:19.120800","MEAN_MOTION":13.11415637,"ECCENTRICITY":0.00015835,"INCLINATION":87.8832,"RA_OF_ASC_NODE":51.6563,"ARG_OF_PERICENTER":36.4333,"MEAN_ANOMALY":323.6903,"EPHEMERIS_TYPE":0,"CLASSIFICATION_TYPE":"U","NORAD_CAT_ID":45145,"ELEMENT_SET_NO":999,"REV_AT_EPOCH":29018,"BSTAR":-0.0018880312,"MEAN_MOTION_DOT":-6.56e-6,"MEAN_MOTION_DDOT":0},{"OBJECT_NAME":"ONEWEB-0039","OBJECT_ID":"2020-008R","EPOCH":"2026-01-14T12:01:46.583040","MEAN_MOTION":13.1037636,"ECCENTRICITY":0.00022285,"INCLINATION":87.8785,"RA_OF_ASC_NODE":66.8972,"ARG_OF_PERICENTER":88.769,"MEAN_ANOMALY":271.3692,"EPHEMERIS_TYPE":0,"CLASSIFICATION_TYPE":"U","NORAD_CAT_ID":45146,"ELEMENT_SET_NO":999,"REV_AT_EPOCH":28803,"BSTAR":0.0010724126,"MEAN_MOTION_DOT":3.87e-6,"MEAN_MOTION_DDOT":0},{"OBJECT_NAME":"ONEWEB-0040","OBJECT_ID":"2020-008S","EPOCH":"2026-01-14T02:42:26.173152","MEAN_MOTION":13.10377561,"ECCENTRICITY":0.00017976,"INCLINATION":87.8777,"RA_OF_ASC_NODE":66.997,"ARG_OF_PERICENTER":96.7607,"MEAN_ANOMALY":263.3725,"EPHEMERIS_TYPE":0,"CLASSIFICATION_TYPE":"U","NORAD_CAT_ID":45147,"ELEMENT_SET_NO":999,"REV_AT_EPOCH":28768,"BSTAR":0.00039800401,"MEAN_MOTION_DOT":1.52e-6,"MEAN_MOTION_DDOT":0},{"OBJECT_NAME":"ONEWEB-0043","OBJECT_ID":"2020-008U","EPOCH":"2026-01-14T02:44:49.435584","MEAN_MOTION":13.10377374,"ECCENTRICITY":0.00022924,"INCLINATION":87.8781,"RA_OF_ASC_NODE":66.9782,"ARG_OF_PERICENTER":89.4992,"MEAN_ANOMALY":270.6398,"EPHEMERIS_TYPE":0,"CLASSIFICATION_TYPE":"U","NORAD_CAT_ID":45149,"ELEMENT_SET_NO":999,"REV_AT_EPOCH":28800,"BSTAR":0.00075660375,"MEAN_MOTION_DOT":2.77e-6,"MEAN_MOTION_DDOT":0},{"OBJECT_NAME":"ONEWEB-0044","OBJECT_ID":"2020-008V","EPOCH":"2026-01-14T12:35:14.825760","MEAN_MOTION":13.10370739,"ECCENTRICITY":0.0002048,"INCLINATION":87.8776,"RA_OF_ASC_NODE":66.889,"ARG_OF_PERICENTER":96.4596,"MEAN_ANOMALY":263.6764,"EPHEMERIS_TYPE":0,"CLASSIFICATION_TYPE":"U","NORAD_CAT_ID":45150,"ELEMENT_SET_NO":999,"REV_AT_EPOCH":28835,"BSTAR":0.0011903802,"MEAN_MOTION_DOT":4.28e-6,"MEAN_MOTION_DDOT":0},{"OBJECT_NAME":"ONEWEB-0045","OBJECT_ID":"2020-008W","EPOCH":"2026-01-14T12:02:47.550336","MEAN_MOTION":13.11413927,"ECCENTRICITY":0.00018362,"INCLINATION":87.8834,"RA_OF_ASC_NODE":51.6429,"ARG_OF_PERICENTER":92.3855,"MEAN_ANOMALY":267.7483,"EPHEMERIS_TYPE":0,"CLASSIFICATION_TYPE":"U","NORAD_CAT_ID":45151,"ELEMENT_SET_NO":999,"REV_AT_EPOCH":29026,"BSTAR":-0.0011468577,"MEAN_MOTION_DOT":-3.94e-6,"MEAN_MOTION_DDOT":0},{"OBJECT_NAME":"ONEWEB-0047","OBJECT_ID":"2020-008X","EPOCH":"2026-01-14T14:15:38.543904","MEAN_MOTION":13.10371871,"ECCENTRICITY":0.00018993,"INCLINATION":87.877,"RA_OF_ASC_NODE":66.8825,"ARG_OF_PERICENTER":97.6283,"MEAN_ANOMALY":262.506,"EPHEMERIS_TYPE":0,"CLASSIFICATION_TYPE":"U","NORAD_CAT_ID":45152,"ELEMENT_SET_NO":999,"REV_AT_EPOCH":28808,"BSTAR":0.0017165497,"MEAN_MOTION_DOT":6.12e-6,"MEAN_MOTION_DDOT":0},{"OBJECT_NAME":"ONEWEB-0048","OBJECT_ID":"2020-008Y","EPOCH":"2026-01-14T14:08:27.953088","MEAN_MOTION":13.10372169,"ECCENTRICITY":0.00017462,"INCLINATION":87.8773,"RA_OF_ASC_NODE":66.911,"ARG_OF_PERICENTER":100.1988,"MEAN_ANOMALY":259.9336,"EPHEMERIS_TYPE":0,"CLASSIFICATION_TYPE":"U","NORAD_CAT_ID":45153,"ELEMENT_SET_NO":999,"REV_AT_EPOCH":28769,"BSTAR":0.0019817278,"MEAN_MOTION_DOT":7.04e-6,"MEAN_MOTION_DDOT":0},{"OBJECT_NAME":"ONEWEB-0049","OBJECT_ID":"2020-008Z","EPOCH":"2026-01-14T12:23:05.866368","MEAN_MOTION":13.10371917,"ECCENTRICITY":0.00022387,"INCLINATION":87.8772,"RA_OF_ASC_NODE":66.9141,"ARG_OF_PERICENTER":104.9039,"MEAN_ANOMALY":255.2336,"EPHEMERIS_TYPE":0,"CLASSIFICATION_TYPE":"U","NORAD_CAT_ID":45154,"ELEMENT_SET_NO":999,"REV_AT_EPOCH":28790,"BSTAR":0.001808138,"MEAN_MOTION_DOT":6.44e-6,"MEAN_MOTION_DDOT":0},{"OBJECT_NAME":"ONEWEB-0051","OBJECT_ID":"2020-008AA","EPOCH":"2026-01-14T12:00:21.624192","MEAN_MOTION":13.11414068,"ECCENTRICITY":0.00017975,"INCLINATION":87.8819,"RA_OF_ASC_NODE":51.6596,"ARG_OF_PERICENTER":95.8301,"MEAN_ANOMALY":264.3032,"EPHEMERIS_TYPE":0,"CLASSIFICATION_TYPE":"U","NORAD_CAT_ID":45155,"ELEMENT_SET_NO":999,"REV_AT_EPOCH":29094,"BSTAR":-0.001147974,"MEAN_MOTION_DOT":-3.94e-6,"MEAN_MOTION_DDOT":0},{"OBJECT_NAME":"ONEWEB-0052","OBJECT_ID":"2020-008AB","EPOCH":"2026-01-14T12:14:55.771008","MEAN_MOTION":13.10374894,"ECCENTRICITY":0.00022763,"INCLINATION":87.878,"RA_OF_ASC_NODE":66.8789,"ARG_OF_PERICENTER":104.3309,"MEAN_ANOMALY":255.8071,"EPHEMERIS_TYPE":0,"CLASSIFICATION_TYPE":"U","NORAD_CAT_ID":45156,"ELEMENT_SET_NO":999,"REV_AT_EPOCH":28781,"BSTAR":0.0018728105,"MEAN_MOTION_DOT":6.66e-6,"MEAN_MOTION_DDOT":0},{"OBJECT_NAME":"ONEWEB-0053","OBJECT_ID":"2020-008AC","EPOCH":"2026-01-14T02:40:05.793888","MEAN_MOTION":13.1030933,"ECCENTRICITY":0.00026505,"INCLINATION":87.8762,"RA_OF_ASC_NODE":67.002,"ARG_OF_PERICENTER":97.2479,"MEAN_ANOMALY":262.895,"EPHEMERIS_TYPE":0,"CLASSIFICATION_TYPE":"U","NORAD_CAT_ID":45157,"ELEMENT_SET_NO":999,"REV_AT_EPOCH":28773,"BSTAR":-0.032701714,"MEAN_MOTION_DOT":-0.00011378,"MEAN_MOTION_DDOT":0},{"OBJECT_NAME":"ONEWEB-0054","OBJECT_ID":"2020-008AD","EPOCH":"2026-01-14T12:40:00.998112","MEAN_MOTION":13.10370779,"ECCENTRICITY":0.00018365,"INCLINATION":87.8776,"RA_OF_ASC_NODE":66.8913,"ARG_OF_PERICENTER":102.1825,"MEAN_ANOMALY":257.9509,"EPHEMERIS_TYPE":0,"CLASSIFICATION_TYPE":"U","NORAD_CAT_ID":45158,"ELEMENT_SET_NO":999,"REV_AT_EPOCH":28790,"BSTAR":0.0006750929,"MEAN_MOTION_DOT":2.48e-6,"MEAN_MOTION_DDOT":0},{"OBJECT_NAME":"ONEWEB-0056","OBJECT_ID":"2020-008AE","EPOCH":"2026-01-14T12:12:32.057568","MEAN_MOTION":13.10375345,"ECCENTRICITY":0.00018846,"INCLINATION":87.8783,"RA_OF_ASC_NODE":66.8945,"ARG_OF_PERICENTER":104.6144,"MEAN_ANOMALY":255.5193,"EPHEMERIS_TYPE":0,"CLASSIFICATION_TYPE":"U","NORAD_CAT_ID":45159,"ELEMENT_SET_NO":999,"REV_AT_EPOCH":28805,"BSTAR":0.0018868475,"MEAN_MOTION_DOT":6.71e-6,"MEAN_MOTION_DDOT":0},{"OBJECT_NAME":"ONEWEB-0057","OBJECT_ID":"2020-008AF","EPOCH":"2026-01-14T12:23:30.019488","MEAN_MOTION":13.10371689,"ECCENTRICITY":0.00020558,"INCLINATION":87.8775,"RA_OF_ASC_NODE":66.9053,"ARG_OF_PERICENTER":97.9579,"MEAN_ANOMALY":262.1782,"EPHEMERIS_TYPE":0,"CLASSIFICATION_TYPE":"U","NORAD_CAT_ID":45160,"ELEMENT_SET_NO":999,"REV_AT_EPOCH":28822,"BSTAR":0.0018563126,"MEAN_MOTION_DOT":6.61e-6,"MEAN_MOTION_DDOT":0}]
