ONEWEB-0035             
1 45143U 20008N   26014.52862242  .00000186  00000+0  49624-3 0  9993
2 45143  87.8767  66.9133 0001665 101.7483 258.3832 13.10370580287817
ONEWEB-0036             
1 45144U 20008P   26014.59502131  .00000612  00000+0  17164-2 0  9996
2 45144  87.8779  66.8613 0002085  97.5374 262.5991 13.10372792288250
ONEWEB-0038             
1 45145U 20008Q   26014.50716575 -.00000656  00000+0 -18880-2 0  9993
2 45145  87.8832  51.6563 0001583  36.4333 323.6903 13.11415637290180
ONEWEB-0039             
1 45146U 20008R   26014.50123360  .00000387  00000+0  10724-2 0  9996
2 45146  87.8785  66.8972 0002228  88.7690 271.3692 13.10376360288036
ONEWEB-0040             
1 45147U 20008S   26014.11280293  .00000152  00000+0  39800-3 0  9990
2 45147  87.8777  66.9970 0001797  96.7607 263.3725 13.10377561287686
ONEWEB-0043             
1 45149U 20008U   26014.11446106  .00000277  00000+0  75660-3 0  9991
2 45149  87.8781  66.9782 0002292  89.4992 270.6398 13.10377374288007
ONEWEB-0044             
1 45150U 20008V   26014.52447715  .00000428  00000+0  11904-2 0  9993
2 45150  87.8776  66.8890 0002048  96.4596 263.6764 13.10370739288354
ONEWEB-0045             
1 45151U 20008W   26014.50193924 -.00000394  00000+0 -11469-2 0  9992
2 45151  87.8834  51.6429 0001836  92.3855 267.7483 13.11413927290261
ONEWEB-0047             
1 45152U 20008X   26014.59419611  .00000612  00000+0  17165-2 0  9996
2 45152  87.8770  66.8825 0001899  97.6283 262.5060 13.10371871288082
ONEWEB-0048             
1 45153U 20008Y   26014.58921242  .00000704  00000+0  19817-2 0  9992
2 45153  87.8773  66.9110 0001746 100.1988 259.9336 13.10372169287690
ONEWEB-0049             
1 45154U 20008Z   26014.51604012  .00000644  00000+0  18081-2 0  9994
2 45154  87.8772  66.9141 0002238 104.9039 255.2336 13.10371917287903
ONEWEB-0051             
1 45155U 20008AA  26014.50025028 -.00000394  00000+0 -11480-2 0  9998
2 45155  87.8819  51.6596 0001797  95.8301 264.3032 13.11414068290948
ONEWEB-0052             
1 45156U 20008AB  26014.51036772  .00000666  00000+0  18728-2 0  9990
2 45156  87.8780  66.8789 0002276 104.3309 255.8071 13.10374894287816
ONEWEB-0053             
1 45157U 20008AC  26014.11117817 -.00011378  00000+0 -32702-1 0  9998
2 45157  87.8762  67.0020 0002650  97.2479 262.8950 13.10309330287730
ONEWEB-0054             
1 45158U 20008AD  26014.52778933  .00000248  00000+0  67509-3 0  9993
2 45158  87.8776  66.8913 0001836 102.1825 257.9509 13.10370779287909
ONEWEB-0056             
1 45159U 20008AE  26014.50870437  .00000671  00000+0  18868-2 0  9997
2 45159  87.8783  66.8945 0001884 104.6144 255.5193 13.10375345288051
ONEWEB-0057             
1 45160U 20008AF  26014.51631967  .00000661  00000+0  18563-2 0  9994
2 45160  87.8775  66.9053 0002055  97.9579 262.1782 13.10371689288226
